ONEWEB-0607             
1 54671U 22166AF  25215.73065050 -.00000017  00000+0 -73645-4 0  9999
2 54671  87.9268 307.3057 0002119 103.0555 257.0816 13.21824401129605
ONEWEB-0608             
1 54672U 22166AG  25216.19111118  .00000052  00000+0  94911-4 0  9994
2 54672  87.9262 307.2004 0002343 111.8441 248.2943 13.21827664130138
ONEWEB-0610             
1 54673U 22166AH  25216.17216679  .00000066  00000+0  12813-3 0  9996
2 54673  87.9272 307.2382 0002378 113.1614 246.9770 13.21832339130042
ONEWEB-0611             
1 54674U 22166AJ  25216.24158001  .00000046  00000+0  80524-4 0  9992
2 54674  87.9270 307.2211 0002020  93.7622 266.3743 13.21826996130046
ONEWEB-0612             
1 54675U 22166AK  25215.49724072  .00000108  00000+0  23066-3 0  9992
2 54675  87.9270 307.3466 0002127 104.7247 255.4123 13.21826538129461
ONEWEB-0615             
1 54676U 22166AL  25215.55400703 -.00000066  00000+0 -19024-3 0  9996
2 54676  87.9271 307.3615 0002023  98.3696 261.7668 13.21827010129482
ONEWEB-0655             
1 54677U 22166AM  25215.52720031  .00000025  00000+0  29445-4 0  9995
2 54677  87.9272 307.3726 0002398  99.3064 260.8341 13.21824400129479
ONEWEB-0659             
1 54678U 22166AN  25215.54454846  .00000005  00000+0 -18556-4 0  9996
2 54678  87.9267 307.3690 0001906  99.6472 260.4877 13.21826200129564
