<?xml version="1.0" encoding="UTF-8"?>
<ndm xmlns:xsi="http://www.w3.org/2001/XMLSchema-instance" xsi:noNamespaceSchemaLocation="https://sanaregistry.org/r/ndmxml_unqualified/ndmxml-2.0.0-master-2.0.xsd">
<omm id="CCSDS_OMM_VERS" version="2.0">
<header><CREATION_DATE/><ORIGINATOR/></header><body><segment><metadata><OBJECT_NAME>ONEWEB-0607</OBJECT_NAME><OBJECT_ID>2022-166AF</OBJECT_ID><CENTER_NAME>EARTH</CENTER_NAME><REF_FRAME>TEME</REF_FRAME><TIME_SYSTEM>UTC</TIME_SYSTEM><MEAN_ELEMENT_THEORY>SGP4</MEAN_ELEMENT_THEORY></metadata><data><meanElements><EPOCH>2025-08-03T17:32:08.203200</EPOCH><MEAN_MOTION>13.21824401</MEAN_MOTION><ECCENTRICITY>.0002119</ECCENTRICITY><INCLINATION>87.9268</INCLINATION><RA_OF_ASC_NODE>307.3057</RA_OF_ASC_NODE><ARG_OF_PERICENTER>103.0555</ARG_OF_PERICENTER><MEAN_ANOMALY>257.0816</MEAN_ANOMALY></meanElements><tleParameters><EPHEMERIS_TYPE>0</EPHEMERIS_TYPE><CLASSIFICATION_TYPE>U</CLASSIFICATION_TYPE><NORAD_CAT_ID>54671</NORAD_CAT_ID><ELEMENT_SET_NO>999</ELEMENT_SET_NO><REV_AT_EPOCH>12960</REV_AT_EPOCH><BSTAR>-.73645E-4</BSTAR><MEAN_MOTION_DOT>-.17E-6</MEAN_MOTION_DOT><MEAN_MOTION_DDOT>0</MEAN_MOTION_DDOT></tleParameters></data></segment></body></omm>
<omm id="CCSDS_OMM_VERS" version="2.0">
<header><CREATION_DATE/><ORIGINATOR/></header><body><segment><metadata><OBJECT_NAME>ONEWEB-0608</OBJECT_NAME><OBJECT_ID>2022-166AG</OBJECT_ID><CENTER_NAME>EARTH</CENTER_NAME><REF_FRAME>TEME</REF_FRAME><TIME_SYSTEM>UTC</TIME_SYSTEM><MEAN_ELEMENT_THEORY>SGP4</MEAN_ELEMENT_THEORY></metadata><data><meanElements><EPOCH>2025-08-04T04:35:12.005952</EPOCH><MEAN_MOTION>13.21827664</MEAN_MOTION><ECCENTRICITY>.0002343</ECCENTRICITY><INCLINATION>87.9262</INCLINATION><RA_OF_ASC_NODE>307.2004</RA_OF_ASC_NODE><ARG_OF_PERICENTER>111.8441</ARG_OF_PERICENTER><MEAN_ANOMALY>248.2943</MEAN_ANOMALY></meanElements><tleParameters><EPHEMERIS_TYPE>0</EPHEMERIS_TYPE><CLASSIFICATION_TYPE>U</CLASSIFICATION_TYPE><NORAD_CAT_ID>54672</NORAD_CAT_ID><ELEMENT_SET_NO>999</ELEMENT_SET_NO><REV_AT_EPOCH>13013</REV_AT_EPOCH><BSTAR>.94911E-4</BSTAR><MEAN_MOTION_DOT>.52E-6</MEAN_MOTION_DOT><MEAN_MOTION_DDOT>0</MEAN_MOTION_DDOT></tleParameters></data></segment></body></omm>
<omm id="CCSDS_OMM_VERS" version="2.0">
<header><CREATION_DATE/><ORIGINATOR/></header><body><segment><metadata><OBJECT_NAME>ONEWEB-0610</OBJECT_NAME><OBJECT_ID>2022-166AH</OBJECT_ID><CENTER_NAME>EARTH</CENTER_NAME><REF_FRAME>TEME</REF_FRAME><TIME_SYSTEM>UTC</TIME_SYSTEM><MEAN_ELEMENT_THEORY>SGP4</MEAN_ELEMENT_THEORY></metadata><data><meanElements><EPOCH>2025-08-04T04:07:55.210656</EPOCH><MEAN_MOTION>13.21832339</MEAN_MOTION><ECCENTRICITY>.0002378</ECCENTRICITY><INCLINATION>87.9272</INCLINATION><RA_OF_ASC_NODE>307.2382</RA_OF_ASC_NODE><ARG_OF_PERICENTER>113.1614</ARG_OF_PERICENTER><MEAN_ANOMALY>246.9770</MEAN_ANOMALY></meanElements><tleParameters><EPHEMERIS_TYPE>0</EPHEMERIS_TYPE><CLASSIFICATION_TYPE>U</CLASSIFICATION_TYPE><NORAD_CAT_ID>54673</NORAD_CAT_ID><ELEMENT_SET_NO>999</ELEMENT_SET_NO><REV_AT_EPOCH>13004</REV_AT_EPOCH><BSTAR>.12813E-3</BSTAR><MEAN_MOTION_DOT>.66E-6</MEAN_MOTION_DOT><MEAN_MOTION_DDOT>0</MEAN_MOTION_DDOT></tleParameters></data></segment></body></omm>
<omm id="CCSDS_OMM_VERS" version="2.0">
<header><CREATION_DATE/><ORIGINATOR/></header><body><segment><metadata><OBJECT_NAME>ONEWEB-0611</OBJECT_NAME><OBJECT_ID>2022-166AJ</OBJECT_ID><CENTER_NAME>EARTH</CENTER_NAME><REF_FRAME>TEME</REF_FRAME><TIME_SYSTEM>UTC</TIME_SYSTEM><MEAN_ELEMENT_THEORY>SGP4</MEAN_ELEMENT_THEORY></metadata><data><meanElements><EPOCH>2025-08-04T05:47:52.512864</EPOCH><MEAN_MOTION>13.21826996</MEAN_MOTION><ECCENTRICITY>.000202</ECCENTRICITY><INCLINATION>87.9270</INCLINATION><RA_OF_ASC_NODE>307.2211</RA_OF_ASC_NODE><ARG_OF_PERICENTER>93.7622</ARG_OF_PERICENTER><MEAN_ANOMALY>266.3743</MEAN_ANOMALY></meanElements><tleParameters><EPHEMERIS_TYPE>0</EPHEMERIS_TYPE><CLASSIFICATION_TYPE>U</CLASSIFICATION_TYPE><NORAD_CAT_ID>54674</NORAD_CAT_ID><ELEMENT_SET_NO>999</ELEMENT_SET_NO><REV_AT_EPOCH>13004</REV_AT_EPOCH><BSTAR>.80524E-4</BSTAR><MEAN_MOTION_DOT>.46E-6</MEAN_MOTION_DOT><MEAN_MOTION_DDOT>0</MEAN_MOTION_DDOT></tleParameters></data></segment></body></omm>
<omm id="CCSDS_OMM_VERS" version="2.0">
<header><CREATION_DATE/><ORIGINATOR/></header><body><segment><metadata><OBJECT_NAME>ONEWEB-0612</OBJECT_NAME><OBJECT_ID>2022-166AK</OBJECT_ID><CENTER_NAME>EARTH</CENTER_NAME><REF_FRAME>TEME</REF_FRAME><TIME_SYSTEM>UTC</TIME_SYSTEM><MEAN_ELEMENT_THEORY>SGP4</MEAN_ELEMENT_THEORY></metadata><data><meanElements><EPOCH>2025-08-03T11:56:01.598208</EPOCH><MEAN_MOTION>13.21826538</MEAN_MOTION><ECCENTRICITY>.0002127</ECCENTRICITY><INCLINATION>87.9270</INCLINATION><RA_OF_ASC_NODE>307.3466</RA_OF_ASC_NODE><ARG_OF_PERICENTER>104.7247</ARG_OF_PERICENTER><MEAN_ANOMALY>255.4123</MEAN_ANOMALY></meanElements><tleParameters><EPHEMERIS_TYPE>0</EPHEMERIS_TYPE><CLASSIFICATION_TYPE>U</CLASSIFICATION_TYPE><NORAD_CAT_ID>54675</NORAD_CAT_ID><ELEMENT_SET_NO>999</ELEMENT_SET_NO><REV_AT_EPOCH>12946</REV_AT_EPOCH><BSTAR>.23066E-3</BSTAR><MEAN_MOTION_DOT>.108E-5</MEAN_MOTION_DOT><MEAN_MOTION_DDOT>0</MEAN_MOTION_DDOT></tleParameters></data></segment></body></omm>
<omm id="CCSDS_OMM_VERS" version="2.0">
<header><CREATION_DATE/><ORIGINATOR/></header><body><segment><metadata><OBJECT_NAME>ONEWEB-0615</OBJECT_NAME><OBJECT_ID>2022-166AL</OBJECT_ID><CENTER_NAME>EARTH</CENTER_NAME><REF_FRAME>TEME</REF_FRAME><TIME_SYSTEM>UTC</TIME_SYSTEM><MEAN_ELEMENT_THEORY>SGP4</MEAN_ELEMENT_THEORY></metadata><data><meanElements><EPOCH>2025-08-03T13:17:46.207392</EPOCH><MEAN_MOTION>13.21827010</MEAN_MOTION><ECCENTRICITY>.0002023</ECCENTRICITY><INCLINATION>87.9271</INCLINATION><RA_OF_ASC_NODE>307.3615</RA_OF_ASC_NODE><ARG_OF_PERICENTER>98.3696</ARG_OF_PERICENTER><MEAN_ANOMALY>261.7668</MEAN_ANOMALY></meanElements><tleParameters><EPHEMERIS_TYPE>0</EPHEMERIS_TYPE><CLASSIFICATION_TYPE>U</CLASSIFICATION_TYPE><NORAD_CAT_ID>54676</NORAD_CAT_ID><ELEMENT_SET_NO>999</ELEMENT_SET_NO><REV_AT_EPOCH>12948</REV_AT_EPOCH><BSTAR>-.19024E-3</BSTAR><MEAN_MOTION_DOT>-.66E-6</MEAN_MOTION_DOT><MEAN_MOTION_DDOT>0</MEAN_MOTION_DDOT></tleParameters></data></segment></body></omm>
<omm id="CCSDS_OMM_VERS" version="2.0">
<header><CREATION_DATE/><ORIGINATOR/></header><body><segment><metadata><OBJECT_NAME>ONEWEB-0655</OBJECT_NAME><OBJECT_ID>2022-166AM</OBJECT_ID><CENTER_NAME>EARTH</CENTER_NAME><REF_FRAME>TEME</REF_FRAME><TIME_SYSTEM>UTC</TIME_SYSTEM><MEAN_ELEMENT_THEORY>SGP4</MEAN_ELEMENT_THEORY></metadata><data><meanElements><EPOCH>2025-08-03T12:39:10.106784</EPOCH><MEAN_MOTION>13.21824400</MEAN_MOTION><ECCENTRICITY>.0002398</ECCENTRICITY><INCLINATION>87.9272</INCLINATION><RA_OF_ASC_NODE>307.3726</RA_OF_ASC_NODE><ARG_OF_PERICENTER>99.3064</ARG_OF_PERICENTER><MEAN_ANOMALY>260.8341</MEAN_ANOMALY></meanElements><tleParameters><EPHEMERIS_TYPE>0</EPHEMERIS_TYPE><CLASSIFICATION_TYPE>U</CLASSIFICATION_TYPE><NORAD_CAT_ID>54677</NORAD_CAT_ID><ELEMENT_SET_NO>999</ELEMENT_SET_NO><REV_AT_EPOCH>12947</REV_AT_EPOCH><BSTAR>.29445E-4</BSTAR><MEAN_MOTION_DOT>.25E-6</MEAN_MOTION_DOT><MEAN_MOTION_DDOT>0</MEAN_MOTION_DDOT></tleParameters></data></segment></body></omm>
<omm id="CCSDS_OMM_VERS" version="2.0">
<header><CREATION_DATE/><ORIGINATOR/></header><body><segment><metadata><OBJECT_NAME>ONEWEB-0659</OBJECT_NAME><OBJECT_ID>2022-166AN</OBJECT_ID><CENTER_NAME>EARTH</CENTER_NAME><REF_FRAME>TEME</REF_FRAME><TIME_SYSTEM>UTC</TIME_SYSTEM><MEAN_ELEMENT_THEORY>SGP4</MEAN_ELEMENT_THEORY></metadata><data><meanElements><EPOCH>2025-08-03T13:04:08.986944</EPOCH><MEAN_MOTION>13.21826200</MEAN_MOTION><ECCENTRICITY>.0001906</ECCENTRICITY><INCLINATION>87.9267</INCLINATION><RA_OF_ASC_NODE>307.3690</RA_OF_ASC_NODE><ARG_OF_PERICENTER>99.6472</ARG_OF_PERICENTER><MEAN_ANOMALY>260.4877</MEAN_ANOMALY></meanElements><tleParameters><EPHEMERIS_TYPE>0</EPHEMERIS_TYPE><CLASSIFICATION_TYPE>U</CLASSIFICATION_TYPE><NORAD_CAT_ID>54678</NORAD_CAT_ID><ELEMENT_SET_NO>999</ELEMENT_SET_NO><REV_AT_EPOCH>12956</REV_AT_EPOCH><BSTAR>-.18556E-4</BSTAR><MEAN_MOTION_DOT>.5E-7</MEAN_MOTION_DOT><MEAN_MOTION_DDOT>0</MEAN_MOTION_DDOT></tleParameters></data></segment></body></omm>

</ndm>
